ALOS (DAICHI)           
1 28931U 06002A   26047.46663568  .00001507  00000+0  26109-3 0  9997
2 28931  98.1184   3.5348 0001807  57.9834 302.1547 14.69737962 70363
H-2A R/B                
1 28932U 06002B   26047.35822510  .00009488  00000+0  48144-3 0  9999
2 28932  98.2367 192.5616 0052317 314.6732  45.0240 15.15968464 91201
RESURS-DK 1             
1 29228U 06021A   26047.63930253  .00002287  00000+0  13675-3 0  9995
2 29228  69.9332 291.4733 0003681 192.0406 168.0673 15.12618607 84343
CZ-4B R/B               
1 29507U 06046C   26047.56451874  .00004812  00000+0  24604-3 0  9991
2 29507  97.5636  92.5288 0032872 343.5766  16.4399 15.16672240 56840
CZ-2C R/B               
1 31114U 07010B   26047.30902186  .00000118  00000+0  73443-4 0  9990
2 31114  98.3971 161.6608 0058812 357.5905   2.4981 14.20238592976681
COSMO-SKYMED 1          
1 31598U 07023A   26047.60157020  .00004250  00000+0  38063-3 0  9991
2 31598  97.8854 238.4672 0001327  93.9519 266.1854 14.96363297 11756
COSMOS 2428             
1 31792U 07029A   26047.57934362  .00000241  00000+0  15510-3 0  9999
2 31792  70.9400 247.6567 0007928 301.4952  58.5394 14.12937980961117
SL-16 R/B               
1 31793U 07029B   26047.63868192  .00000040  00000+0  45600-4 0  9995
2 31793  70.9744 216.6328 0002286 282.5341 150.7720 14.14836267962390
KORONAS-FOTON           
1 33504U 09003A   26047.16931716  .00013126  00000+0  29902-3 0  9997
2 33504  82.4314 298.2416 0009243 229.4014 130.6430 15.42751899942420
CZ-2C R/B               
1 37731U 11030B   26047.47750392  .00001698  00000+0  21994-3 0  9993
2 37731  97.8509   5.1727 0054077  60.1645  56.1697 14.81136458786958
H-2A R/B                
1 38341U 12025E   26047.44578118  .00004784  00000+0  43513-3 0  9997
2 38341  98.4692  12.8011 0045367  24.3302 336.0045 14.94975466745047
SHIJIAN-16 (SJ-16)      
1 39358U 13057A   26047.64511193  .00001373  00000+0  13709-3 0  9999
2 39358  74.9697 224.9245 0016461 165.5371 194.6291 14.92259139668362
