CCSDS_OMM_VERS = 2.0
CREATION_DATE  = 
ORIGINATOR     = 

OBJECT_NAME    = ALOS (DAICHI)
OBJECT_ID      = 2006-002A
CENTER_NAME    = EARTH
REF_FRAME      = TEME
TIME_SYSTEM    = UTC
MEAN_ELEMENT_THEORY = SGP/SGP4

EPOCH          = 2026-02-16T11:11:57.322752
MEAN_MOTION    = 14.69737962
ECCENTRICITY   = .00018075
INCLINATION    = 98.1184
RA_OF_ASC_NODE = 3.5348
ARG_OF_PERICENTER = 57.9834
MEAN_ANOMALY   = 302.1547

EPHEMERIS_TYPE = 0
CLASSIFICATION_TYPE = U
NORAD_CAT_ID   = 28931
ELEMENT_SET_NO = 999
REV_AT_EPOCH   = 7036
BSTAR          = .26108918E-3
MEAN_MOTION_DOT = .1507E-4
MEAN_MOTION_DDOT = 0

CCSDS_OMM_VERS = 2.0
CREATION_DATE  = 
ORIGINATOR     = 

OBJECT_NAME    = H-2A R/B
OBJECT_ID      = 2006-002B
CENTER_NAME    = EARTH
REF_FRAME      = TEME
TIME_SYSTEM    = UTC
MEAN_ELEMENT_THEORY = SGP/SGP4

EPOCH          = 2026-02-16T08:35:50.648640
MEAN_MOTION    = 15.15968464
ECCENTRICITY   = .00523171
INCLINATION    = 98.2367
RA_OF_ASC_NODE = 192.5616
ARG_OF_PERICENTER = 314.6732
MEAN_ANOMALY   = 45.0240

EPHEMERIS_TYPE = 0
CLASSIFICATION_TYPE = U
NORAD_CAT_ID   = 28932
ELEMENT_SET_NO = 999
REV_AT_EPOCH   = 9120
BSTAR          = .48144215E-3
MEAN_MOTION_DOT = .9488E-4
MEAN_MOTION_DDOT = 0

CCSDS_OMM_VERS = 2.0
CREATION_DATE  = 
ORIGINATOR     = 

OBJECT_NAME    = RESURS-DK 1
OBJECT_ID      = 2006-021A
CENTER_NAME    = EARTH
REF_FRAME      = TEME
TIME_SYSTEM    = UTC
MEAN_ELEMENT_THEORY = SGP/SGP4

EPOCH          = 2026-02-16T15:20:35.738592
MEAN_MOTION    = 15.12618607
ECCENTRICITY   = .00036815
INCLINATION    = 69.9332
RA_OF_ASC_NODE = 291.4733
ARG_OF_PERICENTER = 192.0406
MEAN_ANOMALY   = 168.0673

EPHEMERIS_TYPE = 0
CLASSIFICATION_TYPE = U
NORAD_CAT_ID   = 29228
ELEMENT_SET_NO = 999
REV_AT_EPOCH   = 8434
BSTAR          = .13674943E-3
MEAN_MOTION_DOT = .2287E-4
MEAN_MOTION_DDOT = 0

CCSDS_OMM_VERS = 2.0
CREATION_DATE  = 
ORIGINATOR     = 

OBJECT_NAME    = CZ-4B R/B
OBJECT_ID      = 2006-046C
CENTER_NAME    = EARTH
REF_FRAME      = TEME
TIME_SYSTEM    = UTC
MEAN_ELEMENT_THEORY = SGP/SGP4

EPOCH          = 2026-02-16T13:32:54.419136
MEAN_MOTION    = 15.16672240
ECCENTRICITY   = .00328722
INCLINATION    = 97.5636
RA_OF_ASC_NODE = 92.5288
ARG_OF_PERICENTER = 343.5766
MEAN_ANOMALY   = 16.4399

EPHEMERIS_TYPE = 0
CLASSIFICATION_TYPE = U
NORAD_CAT_ID   = 29507
ELEMENT_SET_NO = 999
REV_AT_EPOCH   = 5684
BSTAR          = .24604086E-3
MEAN_MOTION_DOT = .4812E-4
MEAN_MOTION_DDOT = 0

CCSDS_OMM_VERS = 2.0
CREATION_DATE  = 
ORIGINATOR     = 

OBJECT_NAME    = CZ-2C R/B
OBJECT_ID      = 2007-010B
CENTER_NAME    = EARTH
REF_FRAME      = TEME
TIME_SYSTEM    = UTC
MEAN_ELEMENT_THEORY = SGP/SGP4

EPOCH          = 2026-02-16T07:24:59.488704
MEAN_MOTION    = 14.20238592
ECCENTRICITY   = .0058812
INCLINATION    = 98.3971
RA_OF_ASC_NODE = 161.6608
ARG_OF_PERICENTER = 357.5905
MEAN_ANOMALY   = 2.4981

EPHEMERIS_TYPE = 0
CLASSIFICATION_TYPE = U
NORAD_CAT_ID   = 31114
ELEMENT_SET_NO = 999
REV_AT_EPOCH   = 97668
BSTAR          = .73443E-4
MEAN_MOTION_DOT = .118E-5
MEAN_MOTION_DDOT = 0

CCSDS_OMM_VERS = 2.0
CREATION_DATE  = 
ORIGINATOR     = 

OBJECT_NAME    = COSMO-SKYMED 1
OBJECT_ID      = 2007-023A
CENTER_NAME    = EARTH
REF_FRAME      = TEME
TIME_SYSTEM    = UTC
MEAN_ELEMENT_THEORY = SGP/SGP4

EPOCH          = 2026-02-16T14:26:15.665280
MEAN_MOTION    = 14.96363297
ECCENTRICITY   = .00013277
INCLINATION    = 97.8854
RA_OF_ASC_NODE = 238.4672
ARG_OF_PERICENTER = 93.9519
MEAN_ANOMALY   = 266.1854

EPHEMERIS_TYPE = 0
CLASSIFICATION_TYPE = U
NORAD_CAT_ID   = 31598
ELEMENT_SET_NO = 999
REV_AT_EPOCH   = 1175
BSTAR          = .38062826E-3
MEAN_MOTION_DOT = .425E-4
MEAN_MOTION_DDOT = 0

CCSDS_OMM_VERS = 2.0
CREATION_DATE  = 
ORIGINATOR     = 

OBJECT_NAME    = COSMOS 2428
OBJECT_ID      = 2007-029A
CENTER_NAME    = EARTH
REF_FRAME      = TEME
TIME_SYSTEM    = UTC
MEAN_ELEMENT_THEORY = SGP/SGP4

EPOCH          = 2026-02-16T13:54:15.288768
MEAN_MOTION    = 14.12937980
ECCENTRICITY   = .00079281
INCLINATION    = 70.9400
RA_OF_ASC_NODE = 247.6567
ARG_OF_PERICENTER = 301.4952
MEAN_ANOMALY   = 58.5394

EPHEMERIS_TYPE = 0
CLASSIFICATION_TYPE = U
NORAD_CAT_ID   = 31792
ELEMENT_SET_NO = 999
REV_AT_EPOCH   = 96111
BSTAR          = .15509821E-3
MEAN_MOTION_DOT = .241E-5
MEAN_MOTION_DDOT = 0

CCSDS_OMM_VERS = 2.0
CREATION_DATE  = 
ORIGINATOR     = 

OBJECT_NAME    = SL-16 R/B
OBJECT_ID      = 2007-029B
CENTER_NAME    = EARTH
REF_FRAME      = TEME
TIME_SYSTEM    = UTC
MEAN_ELEMENT_THEORY = SGP/SGP4

EPOCH          = 2026-02-16T15:19:42.117888
MEAN_MOTION    = 14.14836267
ECCENTRICITY   = .00022869
INCLINATION    = 70.9744
RA_OF_ASC_NODE = 216.6328
ARG_OF_PERICENTER = 282.5341
MEAN_ANOMALY   = 150.7720

EPHEMERIS_TYPE = 0
CLASSIFICATION_TYPE = U
NORAD_CAT_ID   = 31793
ELEMENT_SET_NO = 999
REV_AT_EPOCH   = 96239
BSTAR          = .45600024E-4
MEAN_MOTION_DOT = .4E-6
MEAN_MOTION_DDOT = 0

CCSDS_OMM_VERS = 2.0
CREATION_DATE  = 
ORIGINATOR     = 

OBJECT_NAME    = KORONAS-FOTON
OBJECT_ID      = 2009-003A
CENTER_NAME    = EARTH
REF_FRAME      = TEME
TIME_SYSTEM    = UTC
MEAN_ELEMENT_THEORY = SGP/SGP4

EPOCH          = 2026-02-16T04:03:49.002624
MEAN_MOTION    = 15.42751899
ECCENTRICITY   = .00092433
INCLINATION    = 82.4314
RA_OF_ASC_NODE = 298.2416
ARG_OF_PERICENTER = 229.4014
MEAN_ANOMALY   = 130.6430

EPHEMERIS_TYPE = 0
CLASSIFICATION_TYPE = U
NORAD_CAT_ID   = 33504
ELEMENT_SET_NO = 999
REV_AT_EPOCH   = 94242
BSTAR          = .29902107E-3
MEAN_MOTION_DOT = .13126E-3
MEAN_MOTION_DDOT = 0

CCSDS_OMM_VERS = 2.0
CREATION_DATE  = 
ORIGINATOR     = 

OBJECT_NAME    = CZ-2C R/B
OBJECT_ID      = 2011-030B
CENTER_NAME    = EARTH
REF_FRAME      = TEME
TIME_SYSTEM    = UTC
MEAN_ELEMENT_THEORY = SGP/SGP4

EPOCH          = 2026-02-16T11:27:36.338688
MEAN_MOTION    = 14.81136458
ECCENTRICITY   = .00540778
INCLINATION    = 97.8509
RA_OF_ASC_NODE = 5.1727
ARG_OF_PERICENTER = 60.1645
MEAN_ANOMALY   = 56.1697

EPHEMERIS_TYPE = 0
CLASSIFICATION_TYPE = U
NORAD_CAT_ID   = 37731
ELEMENT_SET_NO = 999
REV_AT_EPOCH   = 78695
BSTAR          = .21993957E-3
MEAN_MOTION_DOT = .1698E-4
MEAN_MOTION_DDOT = 0

CCSDS_OMM_VERS = 2.0
CREATION_DATE  = 
ORIGINATOR     = 

OBJECT_NAME    = H-2A R/B
OBJECT_ID      = 2012-025E
CENTER_NAME    = EARTH
REF_FRAME      = TEME
TIME_SYSTEM    = UTC
MEAN_ELEMENT_THEORY = SGP/SGP4

EPOCH          = 2026-02-16T10:41:55.493952
MEAN_MOTION    = 14.94975466
ECCENTRICITY   = .00453677
INCLINATION    = 98.4692
RA_OF_ASC_NODE = 12.8011
ARG_OF_PERICENTER = 24.3302
MEAN_ANOMALY   = 336.0045

EPHEMERIS_TYPE = 0
CLASSIFICATION_TYPE = U
NORAD_CAT_ID   = 38341
ELEMENT_SET_NO = 999
REV_AT_EPOCH   = 74504
BSTAR          = .43513418E-3
MEAN_MOTION_DOT = .4784E-4
MEAN_MOTION_DDOT = 0

CCSDS_OMM_VERS = 2.0
CREATION_DATE  = 
ORIGINATOR     = 

OBJECT_NAME    = SHIJIAN-16 (SJ-16)
OBJECT_ID      = 2013-057A
CENTER_NAME    = EARTH
REF_FRAME      = TEME
TIME_SYSTEM    = UTC
MEAN_ELEMENT_THEORY = SGP/SGP4

EPOCH          = 2026-02-16T15:28:57.670752
MEAN_MOTION    = 14.92259139
ECCENTRICITY   = .0016461
INCLINATION    = 74.9697
RA_OF_ASC_NODE = 224.9245
ARG_OF_PERICENTER = 165.5371
MEAN_ANOMALY   = 194.6291

EPHEMERIS_TYPE = 0
CLASSIFICATION_TYPE = U
NORAD_CAT_ID   = 39358
ELEMENT_SET_NO = 999
REV_AT_EPOCH   = 66836
BSTAR          = .13708994E-3
MEAN_MOTION_DOT = .1373E-4
MEAN_MOTION_DDOT = 0

